HORIZONS-2          [PM]
1 32388C 07063B   23283.93571759 -.00000163  00000-0  00000-0 0  2831
2 32388   0.0619  86.7137 0002226 131.6592  63.9594  1.00273695    13
GALAXY 18 (G-18)        
1 32951C 08024A   23278.00000000  .00000116  00000-0  00000-0 0  2784
2 32951   0.0096 252.1138 0003128 306.6117  51.7101  1.00270586    12
GALAXY 18 (G-18)    [PM]
1 32951C 08024A   23279.10416667  .00000115  00000-0  00000-0 0  2796
2 32951   0.0051 234.5684 0003164 326.2320  88.2203  1.00270727    12
GALAXY 18 (G-18)        
1 32951C 08024A   23282.00000000  .00000151  00000-0  00000-0 0  2823
2 32951   0.0005 196.7664 0003102   9.1650  48.4415  1.00271203    16
INTELSAT 25 (IS-25)     
1 33153C 08034A   23278.00000000 -.00000134  00000-0  00000-0 0  2781
2 33153   0.1559  89.3178 0003149 110.2415 142.3628  1.00273067    17
INTELSAT 25 (IS-25)     
1 33153C 08034A   23282.00000000 -.00000134  00000-0  00000-0 0  2821
2 33153   0.1644  90.5962 0003131 116.1385 139.1462  1.00271642    16
INTELSAT 25 (IS-25) [PM]
1 33153C 08034A   23284.82291667 -.00000134  00000-0  00000-0 0  2846
2 33153   0.1689  90.0965 0002947 115.7984  79.0217  1.00272645    11
GALAXY 19 (G-19)        
1 33376C 08045A   23278.00000000 -.00000049  00000-0  00000-0 0  2785
2 33376   0.0000 171.9363 0002892  22.2560  82.2464  1.00272713    12
GALAXY 19 (G-19)        
1 33376C 08045A   23282.00000000 -.00000044  00000-0  00000-0 0  2820
2 33376   0.0087 233.8911 0002758 324.4067  82.0843  1.00268151    14
GALAXY 19 (G-19)    [PM]
1 33376C 08045A   23283.08451389 -.00000046  00000-0  00000-0 0  2832
2 33376   0.0069 228.2692 0002860 323.3610 120.2303  1.00273106    16
INTELSAT 14 (IS-14)     
1 36097C 09064A   23278.00000000 -.00000185  00000-0  00000-0 0  2781
2 36097   0.0177 328.6200 0002468 231.2812 128.5247  1.00274144    15
INTELSAT 14 (IS-14)     
1 36097C 09064A   23282.00000000 -.00000180  00000-0  00000-0 0  2826
2 36097   0.0211 103.3346 0002432 105.8058 123.2511  1.00271918    14
INTELSAT 14 (IS-14) [PM]
1 36097C 09064A   23282.83638889 -.00000183  00000-0  00000-0 0  2822
2 36097   0.0229 262.9328 0002412 309.7816  61.6038  1.00269722    19
INTELSAT 15 (IS-15)     
1 36106C 09067A   23278.00000000 -.00000096  00000-0  00000-0 0  2786
2 36106   0.0329 342.1831 0002418 222.9465 253.4465  1.00271394    16
INTELSAT 15 (IS-15)     
1 36106C 09067A   23282.00000000 -.00000070  00000-0  00000-0 0  2828
2 36106   0.0225 316.1101 0002401 254.5407 251.8756  1.00271479    10
INTELSAT 15 (IS-15) [PM]
1 36106C 09067A   23284.50210648 -.00000095  00000-0  00000-0 0  2845
2 36106   0.0014 263.3948 0002221 302.4463  79.9107  1.00272790    19
INTELSAT 16 (IS-16)     
1 36397C 10006A   23278.00000000 -.00000157  00000-0  00000-0 0  2781
2 36397   0.0305 340.9225 0002286 222.2656  94.0371  1.00273042    10
INTELSAT 16 (IS-16)     
1 36397C 10006A   23282.00000000 -.00000189  00000-0  00000-0 0  2826
2 36397   0.0000 250.5609 0002259 318.9279  91.6912  1.00271361    14
INTELSAT 16 (IS-16) [PM]
1 36397C 10006A   23283.91252315 -.00000155  00000-0  00000-0 0  2839
2 36397   0.0000 256.7041 0002060 309.6344  65.2349  1.00272411    10
INTELSAT 17 (IS-17)     
1 37238C 10065B   23278.00000000  .00000083  00000-0  00000-0 0  2788
2 37238   0.0079 239.9735 0002840 325.3077 234.1520  1.00270872    15
INTELSAT 17 (IS-17)     
1 37238C 10065B   23282.00000000  .00000088  00000-0  00000-0 0  2823
2 37238   0.0197 247.1907 0002995 326.8403 229.3467  1.00272999    16
INTELSAT 17 (IS-17) [PM]
1 37238C 10065B   23284.02090278  .00000088  00000-0  00000-0 0  2845
2 37238   0.0156 239.8561 0002826 332.5243 240.5237  1.00270698    18
INTELSAT NEW DAWN       
1 37392C 11016A   23278.00000000  .00000246  00000-0  00000-0 0  2787
2 37392   0.0161 239.6425 0002318 341.4669 185.1252  1.00272584    16
INTELSAT NEW DAWN   [PM]
1 37392C 11016A   23281.72350694  .00000246  00000-0  00000-0 0  2811
2 37392   0.0106 210.5013 0002222  11.1250  88.7500  1.00270691    18
INTELSAT NEW DAWN       
1 37392C 11016A   23282.00000000  .00000246  00000-0  00000-0 0  2827
2 37392   0.0101 208.8420 0002273  13.9711 187.3728  1.00270886    17
INTELSAT 18 (IS-18)     
1 37834C 11056A   23278.00000000  .00000125  00000-0  00000-0 0  2788
2 37834   0.0000 202.9624 0001949 352.9794 357.5028  1.00269674    10
INTELSAT 18 (IS-18)     
1 37834C 11056A   23282.00000000  .00000148  00000-0  00000-0 0  2823
2 37834   0.0092 236.0855 0001981 333.2291 348.0589  1.00273424    10
INTELSAT 18 (IS-18) [PM]
1 37834C 11056A   23282.78245370  .00000143  00000-0  00000-0 0  2824
2 37834   0.0075 230.3303 0001992 339.6662 269.8370  1.00273174    10
INTELSAT 18 (IS-18) [PM]
1 37834C 11056A   23284.70987269  .00000123  00000-0  00000-0 0  2848
2 37834   0.0039 224.7925 0001839 336.6601 254.1684  1.00269736    11
INTELSAT 22 (IS-22)     
1 38098C 12011A   23278.00000000  .00000033  00000-0  00000-0 0  2781
2 38098   0.0052 146.5149 0003143  59.6247 239.3895  1.00271882    10
INTELSAT 22 (IS-22)     
1 38098C 12011A   23282.00000000  .00000031  00000-0  00000-0 0  2829
2 38098   0.0185 120.6736 0003160  90.3382 238.4661  1.00271676    15
INTELSAT 22 (IS-22) [PM]
1 38098C 12011A   23284.49107639  .00000024  00000-0  00000-0 0  2844
2 38098   0.0536  14.6135 0002807   3.7137 250.4055  1.00272298    15
INTELSAT 19 (IS-19)     
1 38356C 12030A   23278.00000000  .00000076  00000-0  00000-0 0  2786
2 38356   0.0292  13.1558 0003070 183.0474 343.2382  1.00270564    11
INTELSAT 19 (IS-19) [PM]
1 38356C 12030A   23281.75138889  .00000035  00000-0  00000-0 0  2818
2 38356   0.0113 257.4581 0003152 307.1691 249.0037  1.00272855    18
INTELSAT 19 (IS-19)     
1 38356C 12030A   23282.00000000  .00000035  00000-0  00000-0 0  2821
2 38356   0.0108 255.4020 0003082 308.9082 339.0675  1.00272861    18
INTELSAT 19 (IS-19) [PM]
1 38356C 12030A   23283.28472222  .00000034  00000-0  00000-0 0  2831
2 38356   0.0073 246.4971 0003018 316.8493  83.8025  1.00272100    16
INTELSAT 20 (IS-20) [PM]
1 38740C 12043A   23277.95584491  .00000065  00000-0  00000-0 0  2778
2 38740   0.0288 107.4864 0002355  66.0991 252.3978  1.00272713    18
INTELSAT 20 (IS-20)     
1 38740C 12043A   23278.00000000  .00000066  00000-0  00000-0 0  2786
2 38740   0.0232 126.4224 0002282  66.3023 249.2031  1.00270590    12
INTELSAT 20 (IS-20)     
1 38740C 12043A   23282.00000000  .00000065  00000-0  00000-0 0  2825
2 38740   0.0199 142.7152 0002263  51.5855 251.5783  1.00270752    13
INTELSAT 21 (IS-21)     
1 38749C 12045A   23278.00000000 -.00000196  00000-0  00000-0 0  2782
2 38749   0.0354  52.0299 0002560 147.1303 116.2585  1.00279034    19
INTELSAT 21 (IS-21)     
1 38749C 12045A   23282.00000000 -.00000195  00000-0  00000-0 0  2821
2 38749   0.0381  79.7346 0002237 121.5253 118.1344  1.00272273    11
INTELSAT 21 (IS-21) [PM]
1 38749C 12045A   23283.86797454 -.00000195  00000-0  00000-0 0  2833
2 38749   0.0001 164.9284 0002254  37.5440  71.2377  1.00269470    11
INTELSAT 23 (IS-23)     
1 38867C 12057A   23278.00000000 -.00000195  00000-0  00000-0 0  2785
2 38867   0.0300 250.7197 0000858 309.4088 120.3158  1.00269818    17
INTELSAT 23 (IS-23)     
1 38867C 12057A   23282.00000000 -.00000195  00000-0  00000-0 0  2825
2 38867   0.0226 229.5295 0000870 347.9986 106.8284  1.00268096    11
INTELSAT 23 (IS-23) [PM]
1 38867C 12057A   23282.28443287 -.00000183  00000-0  00000-0 0  2820
2 38867   0.0648 348.7420 0001025 333.5481 104.7833  1.00271691    19
INTELSAT 30 (IS-30)     
1 40271C 14062A   23278.00000000 -.00000061  00000-0  00000-0 0  2787
2 40271   0.0000 177.6910 0001892 267.5145 193.1652  1.00271457    12
INTELSAT 30 (IS-30) [PM]
1 40271C 14062A   23278.05393519 -.00000059  00000-0  00000-0 0  2789
2 40271   0.0092 260.6979 0002037 200.7842 196.3627  1.00272929    18
INTELSAT 30 (IS-30)     
1 40271C 14062A   23282.00000000 -.00000061  00000-0  00000-0 0  2827
2 40271   0.0022 208.1950 0002049 235.9488 198.1844  1.00270530    13
INTELSAT 30 (IS-30) [PM]
1 40271C 14062A   23284.40890046 -.00000054  00000-0  00000-0 0  2844
2 40271   0.0552  19.6371 0002305 208.4290 203.8357  1.00273202    16
INTELSAT 34 (IS-34)     
1 40874C 15039A   23278.00000000 -.00000197  00000-0  00000-0 0  2781
2 40874   0.0310 314.0270 0001528  26.0332 337.8650  1.00271018    11
INTELSAT 34 (IS-34) [PM]
1 40874C 15039A   23278.00596065 -.00000196  00000-0  00000-0 0  2781
2 40874   0.0303 307.2077 0001215  31.6405 341.2276  1.00274122    10
INTELSAT 34 (IS-34)     
1 40874C 15039A   23282.00000000 -.00000193  00000-0  00000-0 0  2827
2 40874   0.0327 296.0093 0001206  43.4056 342.4727  1.00271154    18
INTELSAT 31 (IS-31)     
1 41581C 16035A   23278.00000000 -.00000061  00000-0  00000-0 0  2784
2 41581   0.0230 245.0988 0001533 334.7150  58.5653  1.00271184    14
INTELSAT 31 (IS-31) [PM]
1 41581C 16035A   23279.05258102 -.00000061  00000-0  00000-0 0  2799
2 41581   0.0333 269.0373 0001409 329.6667  59.6438  1.00272605    12
INTELSAT 31 (IS-31)     
1 41581C 16035A   23282.00000000 -.00000061  00000-0  00000-0 0  2824
2 41581   0.0254 238.4062 0001444 342.6490  61.2752  1.00270631    12
INTELSAT 36 (IS-36) [PM]
1 41747C 16053A   23277.30962963  .00000054  00000-0  00000-0 0  2775
2 41747   0.0168 350.8462 0002609 125.0851  76.7814  1.00273039    16
INTELSAT 36 (IS-36)     
1 41747C 16053A   23278.00000000  .00000066  00000-0  00000-0 0  2782
2 41747   0.0244  16.5183 0002478 346.5470  78.8636  1.00271149    13
INTELSAT 36 (IS-36)     
1 41747C 16053A   23282.00000000 -.00000019  00000-0  00000-0 0  2821
2 41747   0.0060 259.9400 0002503 106.8063  79.1408  1.00270694    13
INTELSAT 33E            
1 41748C 16053B   23278.00000000  .00000141  00000-0  00000-0 0  2787
2 41748   0.0170 268.8505 0002113 292.6039 231.9787  1.00272410    11
